     2              NAVIGATION DATA                         RINEX VERSION / TYPE
CCRINEXN V1.6.0 UX  CDDIS               17-MAY-20 19:31     PGM / RUN BY / DATE 
IGS BROADCAST EPHEMERIS FILE                                COMMENT             
    0.7451D-08  0.2235D-07 -0.5960D-07 -0.1192D-06          ION ALPHA           
    0.8602D+05  0.8192D+05 -0.1311D+06 -0.5243D+06          ION BETA            
   -0.931322574615D-09 0.355271367880D-14    61440     2106 DELTA-UTC: A0,A1,T,W
    18                                                      LEAP SECONDS        
                                                            END OF HEADER       
 2 20  5 16  0  0  0.0-0.456487294287D-03-0.613908923697D-11 0.000000000000D+00
    0.720000000000D+02 0.202187500000D+02 0.465483674978D-08-0.263574807904D+01
    0.117719173431D-05 0.197065009270D-01 0.538304448128D-05 0.515369996452D+04
    0.518400000000D+06 0.292435288429D-06-0.303666075087D+01 0.204890966415D-06
    0.959315887495D+00 0.270343750000D+03-0.162990811091D+01-0.792390149087D-08
    0.371444043564D-09 0.100000000000D+01 0.210500000000D+04 0.000000000000D+00
    0.200000000000D+01 0.000000000000D+00-0.176951289177D-07 0.720000000000D+02
    0.511218000000D+06 0.400000000000D+01 0.000000000000D+00 0.000000000000D+00
 3 20  5 16  0  0  0.0-0.176951754838D-03-0.121644916362D-10 0.000000000000D+00
    0.440000000000D+02-0.655312500000D+02 0.457269047091D-08 0.236763479777D+01
   -0.352598726749D-05 0.280326884240D-02 0.598281621933D-05 0.515355792427D+04
    0.518400000000D+06-0.335276126862D-07-0.192026551362D+01-0.298023223877D-07
    0.965321695786D+00 0.265812500000D+03 0.699791417281D+00-0.810712340852D-08
   -0.191436545529D-09 0.100000000000D+01 0.210500000000D+04 0.000000000000D+00
    0.200000000000D+01 0.000000000000D+00 0.186264514923D-08 0.440000000000D+02
    0.511218000000D+06 0.400000000000D+01 0.000000000000D+00 0.000000000000D+00
 2 20  5 16  2  0  0.0-0.456531997770D-03-0.613908923697D-11 0.000000000000D+00
    0.730000000000D+02 0.289687500000D+02 0.470483883257D-08-0.158564094568D+01
    0.200234353542D-05 0.197071307339D-01 0.582449138165D-05 0.515369749641D+04
    0.525600000000D+06 0.130385160446D-06-0.303671765399D+01 0.495463609695D-06
    0.959317724920D+00 0.266093750000D+03-0.162984902073D+01-0.812605276843D-08
    0.322513433979D-09 0.100000000000D+01 0.210500000000D+04 0.000000000000D+00
    0.200000000000D+01 0.000000000000D+00-0.176951289177D-07 0.730000000000D+02
    0.518418000000D+06 0.400000000000D+01 0.000000000000D+00 0.000000000000D+00
 3 20  5 16  2  0  0.0-0.177039299160D-03-0.121644916362D-10 0.000000000000D+00
    0.970000000000D+02-0.688437500000D+02 0.466698011274D-08-0.286514252402D+01
   -0.356510281563D-05 0.280411727727D-02 0.621005892754D-05 0.515355618286D+04
    0.525600000000D+06 0.111758708954D-07-0.192032416932D+01-0.949949026108D-07
    0.965320235794D+00 0.259156250000D+03 0.699636723935D+00-0.814962517889D-08
   -0.159649507186D-09 0.100000000000D+01 0.210500000000D+04 0.000000000000D+00
    0.200000000000D+01 0.000000000000D+00 0.186264514923D-08 0.970000000000D+02
    0.518418000000D+06 0.400000000000D+01 0.000000000000D+00 0.000000000000D+00
 2 20  5 16  4  0  0.0-0.456576701254D-03-0.613908923697D-11 0.000000000000D+00
    0.740000000000D+02 0.240625000000D+02 0.484413034890D-08-0.535517007782D+00
    0.124238431454D-05 0.197066630935D-01 0.654719769955D-05 0.515369555855D+04
    0.532800000000D+06-0.266358256340D-06-0.303677936719D+01 0.108033418655D-06
    0.959318418343D+00 0.261406250000D+03-0.162980337914D+01-0.862500212310D-08
    0.444304221340D-09 0.100000000000D+01 0.210500000000D+04 0.000000000000D+00
    0.200000000000D+01 0.000000000000D+00-0.176951289177D-07 0.740000000000D+02
    0.525618000000D+06 0.400000000000D+01 0.000000000000D+00 0.000000000000D+00
 3 20  5 16  4  0  0.0-0.177127309144D-03-0.121644916362D-10 0.000000000000D+00
    0.990000000000D+02-0.648125000000D+02 0.473519723997D-08-0.181507032222D+01
   -0.332668423653D-05 0.280419050250D-02 0.621750950813D-05 0.515355539322D+04
    0.532800000000D+06 0.577419996262D-07-0.192038354624D+01 0.428408384323D-07
    0.965319501409D+00 0.262687500000D+03 0.699818800182D+00-0.816391148825D-08
   -0.407159816984D-10 0.100000000000D+01 0.210500000000D+04 0.000000000000D+00
    0.200000000000D+01 0.000000000000D+00 0.186264514923D-08 0.990000000000D+02
    0.525618000000D+06 0.400000000000D+01 0.000000000000D+00 0.000000000000D+00
